#dV2023  2  2 10  0  0.00000000    1682       CTS   FIT  GFZ
## 2247 381600.00000000    30.00000000 59977 0.4166666666667
+    1   L64  0  0  0  0  0  0  0  0  0  0  0  0  0  0  0  0
+          0  0  0  0  0  0  0  0  0  0  0  0  0  0  0  0  0
+          0  0  0  0  0  0  0  0  0  0  0  0  0  0  0  0  0
+          0  0  0  0  0  0  0  0  0  0  0  0  0  0  0  0  0
+          0  0  0  0  0  0  0  0  0  0  0  0  0  0  0  0  0
++         0  0  0  0  0  0  0  0  0  0  0  0  0  0  0  0  0
++         0  0  0  0  0  0  0  0  0  0  0  0  0  0  0  0  0
++         0  0  0  0  0  0  0  0  0  0  0  0  0  0  0  0  0
++         0  0  0  0  0  0  0  0  0  0  0  0  0  0  0  0  0
++         0  0  0  0  0  0  0  0  0  0  0  0  0  0  0  0  0
%c L  cc GPS ccc cccc cccc cccc cccc ccccc ccccc ccccc ccccc
%c cc cc ccc ccc cccc cccc cccc cccc ccccc ccccc ccccc ccccc
%f  0.0000000  0.000000000  0.00000000000  0.000000000000000
%f  0.0000000  0.000000000  0.00000000000  0.000000000000000
%i    0    0    0    0      0      0      0      0         0
%i    0    0    0    0      0      0      0      0         0
/* CCCCCCCCCCCCCCCCCCCCCCCCCCCCCCCCCCCCCCCCCCCCCCCCCCCCCCCCCCCCCCCCCCCCCCCCCCCCC
/* C                             GFZ RSO-ORBIT                                 C
/* C DOI: https://doi.org/10.5880/GFZ_ORBIT/RSO/L64_G_v02                      C
/* C                                                                           C
/* C DORIS        RMS: not applicable                                          C
/* C GNSS-E Code  RMS: not applicable                                          C
/* C GNSS-E Phase RMS: not applicable                                          C
/* C GNSS-G Code  RMS:  49.988 [cm]   Obs.acc.:     13740 Obs.eli.:       914  C
/* C GNSS-G Phase RMS:   4.172 [mm]   Obs.acc.:     13740 Obs.eli.:       914  C
/* C SLR          RMS:   0.903 [cm]   Obs.acc.:        31 Obs.eli.:         0  C
/* C                                                                           C
/* CCCCCCCCCCCCCCCCCCCCCCCCCCCCCCCCCCCCCCCCCCCCCCCCCCCCCCCCCCCCCCCCCCCCCCCCCCCCC
*  2023  2  2 15  6  0.00000000
PL64   5743.938208    910.533402   3666.788119   7799.757917
VL64 -39800.900196  -9001.204183  64286.320339 999999.999999
*  2023  2  2 15  6 30.00000000
PL64   5621.343387    883.300499   3857.583318   7800.217657
VL64 -41921.607006  -9150.855944  62898.752319 999999.999999
*  2023  2  2 15  7  0.00000000
PL64   5492.454006    855.647496   4044.111052   7800.677347
VL64 -43996.875068  -9281.278249  61441.606212 999999.999999
*  2023  2  2 15  7 30.00000000
PL64   5357.409948    827.632002   4226.164988   7801.137208
VL64 -46024.333643  -9392.529479  59916.495307 999999.999999
*  2023  2  2 15  8  0.00000000
PL64   5216.358132    799.311402   4403.543748   7801.596645
VL64 -48001.665906  -9484.699737  58325.111007 999999.999999
*  2023  2  2 15  8 30.00000000
PL64   5069.452339    770.742763   4576.051143   7802.056441
VL64 -49926.613469  -9557.911630  56669.218240 999999.999999
*  2023  2  2 15  9  0.00000000
PL64   4916.853036    741.982737   4743.496382   7802.516431
VL64 -51796.978098  -9612.319338  54950.652374 999999.999999
*  2023  2  2 15  9 30.00000000
PL64   4758.727191    713.087468   4905.694285   7802.976058
VL64 -53610.624285  -9648.106805  53171.316722 999999.999999
*  2023  2  2 15 10  0.00000000
PL64   4595.248083    684.112504   5062.465480   7803.435849
VL64 -55365.480225  -9665.487077  51333.180445 999999.999999
*  2023  2  2 15 10 30.00000000
PL64   4426.595108    655.112710   5213.636599   7803.895599
VL64 -57059.540145  -9664.703566  49438.277784 999999.999999
*  2023  2  2 15 11  0.00000000
PL64   4252.953577    626.142174   5359.040475   7804.355631
VL64 -58690.867975  -9646.029551  47488.705361 999999.999999
*  2023  2  2 15 11 30.00000000
PL64   4074.514499    597.254123   5498.516315   7804.815342
VL64 -60257.600315  -9609.766450  45486.618777 999999.999999
*  2023  2  2 15 12  0.00000000
PL64   3891.474361    568.500837   5631.909882   7805.275001
VL64 -61757.948730  -9556.242711  43434.228223 999999.999999
*  2023  2  2 15 12 30.00000000
PL64   3704.034907    539.933574   5759.073640   7805.734852
VL64 -63190.199150  -9485.812752  41333.794988 999999.999999
*  2023  2  2 15 13  0.00000000
PL64   3512.402906    511.602488   5879.866919   7806.194461
VL64 -64552.712156  -9398.856144  39187.630904 999999.999999
*  2023  2  2 15 13 30.00000000
PL64   3316.789937    483.556560   5994.156055   7806.654328
VL64 -65843.924914  -9295.776818  36998.097101 999999.999999
*  2023  2  2 15 14  0.00000000
PL64   3117.412144    455.843523   6101.814539   7807.114271
VL64 -67062.353173  -9177.002541  34767.602491 999999.999999
*  2023  2  2 15 14 30.00000000
PL64   2914.490007    428.509789   6202.723161 999999.999999
VL64 -68206.594725  -9042.984839  32498.600960 999999.999999
*  2023  2  2 15 15  0.00000000
PL64   2708.248084    401.600383   6296.770131   7808.033840
VL64 -69275.331224  -8894.198324  30193.586342 999999.999999
*  2023  2  2 15 15 30.00000000
PL64   2498.914763    375.158873   6383.851196   7808.493648
VL64 -70267.327632  -8731.139359  27855.089400 999999.999999
*  2023  2  2 15 16  0.00000000
PL64   2286.722012    349.227303   6463.869750   7808.953259
VL64 -71181.432793  -8554.325086  25485.676797 999999.999999
*  2023  2  2 15 16 30.00000000
PL64   2071.905126    323.846141   6536.736941   7809.413348
VL64 -72016.581128  -8364.292454  23087.949390 999999.999999
*  2023  2  2 15 17  0.00000000
PL64   1854.702463    299.054212   6602.371764   7809.873043
VL64 -72771.794789  -8161.596912  20664.540152 999999.999999
*  2023  2  2 15 17 30.00000000
PL64   1635.355182    274.888650   6660.701161   7810.332819
VL64 -73446.186003  -7946.811699  18218.110777 999999.999999
*  2023  2  2 15 18  0.00000000
PL64   1414.106969    251.384842   6711.660094   7810.792617
VL64 -74038.957965  -7720.527327  15751.347221 999999.999999
*  2023  2  2 15 18 30.00000000
PL64   1191.203763    228.576379   6755.191616   7811.252388
VL64 -74549.404344  -7483.350414  13266.956236 999999.999999
*  2023  2  2 15 19  0.00000000
PL64    966.893488    206.495011   6791.246929   7811.711963
VL64 -74976.909187  -7235.902520  10767.663321 999999.999999
*  2023  2  2 15 19 30.00000000
PL64    741.425777    185.170600   6819.785435   7812.172193
VL64 -75320.947972  -6978.818985   8256.210304 999999.999999
*  2023  2  2 15 20  0.00000000
PL64    515.051701    164.631085   6840.774785   7812.631948
VL64 -75581.088317  -6712.747531   5735.352396 999999.999999
*  2023  2  2 15 20 30.00000000
PL64    288.023489    144.902444   6854.190911   7813.091519
VL64 -75756.990419  -6438.347312   3207.856028 999999.999999
*  2023  2  2 15 21  0.00000000
PL64     60.594247    126.008660   6860.018058   7813.551379
VL64 -75848.407978  -6156.288248    676.496040 999999.999999
*  2023  2  2 15 21 30.00000000
PL64   -166.982319    107.971694   6858.248803   7814.011386
VL64 -75855.188519  -5867.249641  -1855.947892 999999.999999
*  2023  2  2 15 22  0.00000000
PL64   -394.452186     90.811455   6848.884068   7814.471136
VL64 -75777.273113  -5571.918521  -4386.694187 999999.999999
*  2023  2  2 15 22 30.00000000
PL64   -621.561293     74.545782   6831.933117   7814.930792
VL64 -75614.696277  -5270.988557  -6912.961320 999999.999999
*  2023  2  2 15 23  0.00000000
PL64   -848.055827     59.190423   6807.413559   7815.390719
VL64 -75367.586886  -4965.159157  -9431.970159 999999.999999
*  2023  2  2 15 23 30.00000000
PL64  -1073.682502     44.759022   6775.351328   7815.850357
VL64 -75036.168536  -4655.134562 -11940.947871 999999.999999
*  2023  2  2 15 24  0.00000000
PL64  -1298.188844     31.263103   6735.780666   7816.310281
VL64 -74620.758166  -4341.622789 -14437.131267 999999.999999
*  2023  2  2 15 24 30.00000000
PL64  -1521.323466     18.712062   6688.744087   7816.769712
VL64 -74121.765463  -4025.334285 -16917.768280 999999.999999
*  2023  2  2 15 25  0.00000000
PL64  -1742.836354      7.113163   6634.292342   7817.229674
VL64 -73539.694018  -3706.980598 -19380.120270 999999.999999
*  2023  2  2 15 25 30.00000000
PL64  -1962.479146     -3.528467   6572.484372   7817.689485
VL64 -72875.141344  -3387.273013 -21821.465869 999999.999999
*  2023  2  2 15 26  0.00000000
PL64  -2180.005409    -13.209831   6503.387255   7818.149324
VL64 -72128.797731  -3066.921340 -24239.103872 999999.999999
*  2023  2  2 15 26 30.00000000
PL64  -2395.170921    -21.930059   6427.076136   7818.609051
VL64 -71301.445851  -2746.632955 -26630.355698 999999.999999
*  2023  2  2 15 27  0.00000000
PL64  -2607.733947    -29.690397   6343.634161   7819.068698
VL64 -70393.960135  -2427.111941 -28992.568290 999999.999999
*  2023  2  2 15 27 30.00000000
PL64  -2817.455510    -36.494198   6253.152392   7819.528666
VL64 -69407.306308  -2109.058251 -31323.116486 999999.999999
*  2023  2  2 15 28  0.00000000
PL64  -3024.099670    -42.346908   6155.729722   7819.988584
VL64 -68342.541359  -1793.166261 -33619.406011 999999.999999
*  2023  2  2 15 28 30.00000000
PL64  -3227.433792    -47.256045   6051.472776   7820.448141
VL64 -67200.812796  -1480.123222 -35878.876791 999999.999999
*  2023  2  2 15 29  0.00000000
PL64  -3427.228818    -51.231175   5940.495804   7820.908025
VL64 -65983.358099  -1170.607785 -38099.006173 999999.999999
*  2023  2  2 15 29 30.00000000
PL64  -3623.259537    -54.283888   5822.920563   7821.368026
VL64 -64691.503040   -865.288231 -40277.312845 999999.999999
*  2023  2  2 15 30  0.00000000
PL64  -3815.304845    -56.427758   5698.876189   7821.827490
VL64 -63326.659090   -564.821840 -42411.359316 999999.999999
*  2023  2  2 15 30 30.00000000
PL64  -4003.147996    -57.678319   5568.499061   7822.287179
VL64 -61890.322165   -269.854856 -44498.753223 999999.999999
*  2023  2  2 15 31  0.00000000
PL64  -4186.576862    -58.053021   5431.932669   7822.747165
VL64 -60384.072751     18.978417 -46537.149036 999999.999999
EOF
